{
    "links": {
        "self": "http://www.neowsapp.com/rest/v1/neo/3163752?api_key=iIulBulltgU6a56xZRHN4H3l9WmuAYTsLGpBGhQ2"
    },
    "id": "3163752",
    "neo_reference_id": "3163752",
    "name": "(2003 UL9)",
    "designation": "2003 UL9",
    "nasa_jpl_url": "http://ssd.jpl.nasa.gov/sbdb.cgi?sstr=3163752",
    "absolute_magnitude_h": 22.4,
    "estimated_diameter": {
        "kilometers": {
            "estimated_diameter_min": 0.0880146521,
            "estimated_diameter_max": 0.1968067451
        },
        "meters": {
            "estimated_diameter_min": 88.0146520901,
            "estimated_diameter_max": 196.8067450894
        },
        "miles": {
            "estimated_diameter_min": 0.0546897524,
            "estimated_diameter_max": 0.122290004
        },
        "feet": {
            "estimated_diameter_min": 288.7619911632,
            "estimated_diameter_max": 645.6914415591
        }
    },
    "is_potentially_hazardous_asteroid": false,
    "close_approach_data": [
        {
            "close_approach_date": "2002-10-15",
            "close_approach_date_full": "2002-Oct-15 01:24",
            "epoch_date_close_approach": 1034645040000,
            "relative_velocity": {
                "kilometers_per_second": "29.6063457583",
                "kilometers_per_hour": "106582.8447297061",
                "miles_per_hour": "66226.4348266332"
            },
            "miss_distance": {
                "astronomical": "0.1345458933",
                "lunar": "52.3383524937",
                "kilometers": "20127779.054927271",
                "miles": "12506821.9556914998"
            },
            "orbiting_body": "Earth"
        },
        {
            "close_approach_date": "2003-10-16",
            "close_approach_date_full": "2003-Oct-16 18:47",
            "epoch_date_close_approach": 1066330020000,
            "relative_velocity": {
                "kilometers_per_second": "30.0442018025",
                "kilometers_per_hour": "108159.1264890695",
                "miles_per_hour": "67205.8750120554"
            },
            "miss_distance": {
                "astronomical": "0.1307703959",
                "lunar": "50.8696840051",
                "kilometers": "19562972.685696733",
                "miles": "12155867.5518235954"
            },
            "orbiting_body": "Earth"
        },
        {
            "close_approach_date": "2004-10-17",
            "close_approach_date_full": "2004-Oct-17 14:33",
            "epoch_date_close_approach": 1098023580000,
            "relative_velocity": {
                "kilometers_per_second": "30.6281350662",
                "kilometers_per_hour": "110261.2862381627",
                "miles_per_hour": "68512.075329485"
            },
            "miss_distance": {
                "astronomical": "0.159931635",
                "lunar": "62.213406015",
                "kilometers": "23925431.94161745",
                "miles": "14866574.03632281"
            },
            "orbiting_body": "Earth"
        }
    ],
    "orbital_data": {
        "orbit_id": "10",
        "orbit_determination_date": "2017-04-06 09:13:38",
        "first_observation_date": "2003-10-19",
        "last_observation_date": "2003-10-25",
        "data_arc_in_days": 6,
        "observations_used": 24,
        "orbit_uncertainty": "9",
        "minimum_orbit_intersection": ".127982",
        "jupiter_tisserand_invariant": "5.547",
        "epoch_osculation": "2452934.5",
        "eccentricity": ".2298721678910568",
        "semi_major_axis": "1.009331693642236",
        "inclination": "62.79026606354267",
        "ascending_node_longitude": "23.34802998964597",
        "orbital_period": "370.3815055874578",
        "perihelion_distance": ".7773144291035431",
        "perihelion_argument": "228.2566719087725",
        "aphelion_distance": "1.241348958180929",
        "perihelion_time": "2452820.382816007339",
        "mean_anomaly": "110.9185680645636",
        "mean_motion": ".9719707776148494",
        "equinox": "J2000",
        "orbit_class": {
            "orbit_class_type": "APO",
            "orbit_class_description": "Near-Earth asteroid orbits which cross the Earth’s orbit similar to that of 1862 Apollo",
            "orbit_class_range": "a (semi-major axis) > 1.0 AU; q (perihelion) < 1.017 AU"
        }
    },
    "is_sentry_object": false
}